[
    {
      "name": "Andorra",
      "name_code": "ad",
      "phone_code": "376"
    },
    {
      "name": "Emiratos Árabes Unidos",
      "name_code": "ae",
      "phone_code": "971"
    },
    {
      "name": "Afganistán",
      "name_code": "af",
      "phone_code": "93"
    },
    {
      "name": "Antigua y Barbuda",
      "name_code": "ag",
      "phone_code": "1"
    },
    {
      "name": "Anguila",
      "name_code": "ai",
      "phone_code": "1"
    },
    {
      "name": "Albania",
      "name_code": "al",
      "phone_code": "355"
    },
    {
      "name": "Armenia",
      "name_code": "am",
      "phone_code": "374"
    },
    {
      "name": "Angola",
      "name_code": "ao",
      "phone_code": "244"
    },
    {
      "name": "Argentina",
      "name_code": "ar",
      "phone_code": "54"
    },
    {
      "name": "Austria",
      "name_code": "at",
      "phone_code": "43"
    },
    {
      "name": "Australia",
      "name_code": "au",
      "phone_code": "61"
    },
    {
      "name": "Aruba",
      "name_code": "aw",
      "phone_code": "297"
    },
    {
      "name": "Azerbaiyán",
      "name_code": "az",
      "phone_code": "994"
    },
    {
      "name": "Bosnia y Herzegovina",
      "name_code": "ba",
      "phone_code": "387"
    },
    {
      "name": "Barbados",
      "name_code": "bb",
      "phone_code": "1"
    },
    {
      "name": "Bangladesh",
      "name_code": "bd",
      "phone_code": "880"
    },
    {
      "name": "Bélgica",
      "name_code": "be",
      "phone_code": "32"
    },
    {
      "name": "Burkina Faso",
      "name_code": "bf",
      "phone_code": "226"
    },
    {
      "name": "Bulgaria",
      "name_code": "bg",
      "phone_code": "359"
    },
    {
      "name": "Bahrein",
      "name_code": "bh",
      "phone_code": "973"
    },
    {
      "name": "Burundi",
      "name_code": "bi",
      "phone_code": "257"
    },
    {
      "name": "Benin",
      "name_code": "bj",
      "phone_code": "229"
    },
    {
      "name": "San Bartolomé",
      "name_code": "bl",
      "phone_code": "590"
    },
    {
      "name": "islas Bermudas",
      "name_code": "bm",
      "phone_code": "1"
    },
    {
      "name": "Brunei Darussalam",
      "name_code": "bn",
      "phone_code": "673"
    },
    {
      "name": "Bolivia Estado Plurinacional de",
      "name_code": "bo",
      "phone_code": "591"
    },
    {
      "name": "Brasil",
      "name_code": "br",
      "phone_code": "55"
    },
    {
      "name": "Bahamas",
      "name_code": "bs",
      "phone_code": "1"
    },
    {
      "name": "Bhután",
      "name_code": "bt",
      "phone_code": "975"
    },
    {
      "name": "Botswana",
      "name_code": "bw",
      "phone_code": "267"
    },
    {
      "name": "Belarús",
      "name_code": "by",
      "phone_code": "375"
    },
    {
      "name": "Belice",
      "name_code": "bz",
      "phone_code": "501"
    },
    {
      "name": "Canadá",
      "name_code": "ca",
      "phone_code": "1"
    },
    {
      "name": "Cocos (,Keeling)",
      "name_code": "cc",
      "phone_code": "61"
    },
    {
      "name": "Congo La República Democrática Del",
      "name_code": "cd",
      "phone_code": "243"
    },
    {
      "name": "República Centroafricana",
      "name_code": "cf",
      "phone_code": "236"
    },
    {
      "name": "Suiza",
      "name_code": "ch",
      "phone_code": "41"
    },
    {
      "name": "Costa de Marfil",
      "name_code": "ci",
      "phone_code": "225"
    },
    {
      "name": "Islas Cook",
      "name_code": "ck",
      "phone_code": "682"
    },
    {
      "name": "Chile",
      "name_code": "cl",
      "phone_code": "56"
    },
    {
      "name": "Camerún",
      "name_code": "cm",
      "phone_code": "237"
    },
    {
      "name": "China",
      "name_code": "cn",
      "phone_code": "86"
    },
    {
      "name": "Colombia",
      "name_code": "co",
      "phone_code": "57"
    },
    {
      "name": "Costa Rica",
      "name_code": "cr",
      "phone_code": "506"
    },
    {
      "name": "Cuba",
      "name_code": "cu",
      "phone_code": "53"
    },
    {
      "name": "Cabo Verde",
      "name_code": "cv",
      "phone_code": "238"
    },
    {
      "name": "Isla de Navidad",
      "name_code": "cx",
      "phone_code": "61"
    },
    {
      "name": "Chipre",
      "name_code": "cy",
      "phone_code": "357"
    },
    {
      "name": "República Checa",
      "name_code": "cz",
      "phone_code": "420"
    },
    {
      "name": "Alemania",
      "name_code": "de",
      "phone_code": "49"
    },
    {
      "name": "Djibouti",
      "name_code": "dj",
      "phone_code": "253"
    },
    {
      "name": "Dinamarca",
      "name_code": "dk",
      "phone_code": "45"
    },
    {
      "name": "Dominica",
      "name_code": "dm",
      "phone_code": "1"
    },
    {
      "name": "República Dominicana",
      "name_code": "do",
      "phone_code": "1"
    },
    {
      "name": "Argelia",
      "name_code": "dz",
      "phone_code": "213"
    },
    {
      "name": "Ecuador",
      "name_code": "ec",
      "phone_code": "593"
    },
    {
      "name": "Estonia",
      "name_code": "ee",
      "phone_code": "372"
    },
    {
      "name": "Egipto",
      "name_code": "eg",
      "phone_code": "20"
    },
    {
      "name": "Eritrea",
      "name_code": "er",
      "phone_code": "291"
    },
    {
      "name": "España",
      "name_code": "es",
      "phone_code": "34"
    },
    {
      "name": "Etiopía",
      "name_code": "et",
      "phone_code": "251"
    },
    {
      "name": "Finlandia",
      "name_code": "fi",
      "phone_code": "358"
    },
    {
      "name": "Fiji",
      "name_code": "fj",
      "phone_code": "679"
    },
    {
      "name": "Islas Malvinas (Falkland)",
      "name_code": "fk",
      "phone_code": "500"
    },
    {
      "name": "Micronesia Estados Federados de",
      "name_code": "fm",
      "phone_code": "691"
    },
    {
      "name": "Islas Faroe",
      "name_code": "fo",
      "phone_code": "298"
    },
    {
      "name": "Francia",
      "name_code": "fr",
      "phone_code": "33"
    },
    {
      "name": "Gabón",
      "name_code": "ga",
      "phone_code": "241"
    },
    {
      "name": "Reino Unido",
      "name_code": "gb",
      "phone_code": "44"
    },
    {
      "name": "Granada",
      "name_code": "gd",
      "phone_code": "1"
    },
    {
      "name": "Georgia",
      "name_code": "ge",
      "phone_code": "995"
    },
    {
      "name": "Ghana",
      "name_code": "gh",
      "phone_code": "233"
    },
    {
      "name": "Gibraltar",
      "name_code": "gi",
      "phone_code": "350"
    },
    {
      "name": "Tierra Verde",
      "name_code": "gl",
      "phone_code": "299"
    },
    {
      "name": "Gambia",
      "name_code": "gm",
      "phone_code": "220"
    },
    {
      "name": "Guinea",
      "name_code": "gn",
      "phone_code": "224"
    },
    {
      "name": "Guinea Ecuatorial",
      "name_code": "gq",
      "phone_code": "240"
    },
    {
      "name": "Grecia",
      "name_code": "gr",
      "phone_code": "30"
    },
    {
      "name": "Guatemala",
      "name_code": "gt",
      "phone_code": "502"
    },
    {
      "name": "Guinea-,Bissau",
      "name_code": "gw",
      "phone_code": "245"
    },
    {
      "name": "Guayana",
      "name_code": "gy",
      "phone_code": "592"
    },
    {
      "name": "Hong Kong",
      "name_code": "hk",
      "phone_code": "852"
    },
    {
      "name": "Honduras",
      "name_code": "hn",
      "phone_code": "504"
    },
    {
      "name": "Croacia",
      "name_code": "hr",
      "phone_code": "385"
    },
    {
      "name": "Haití",
      "name_code": "ht",
      "phone_code": "509"
    },
    {
      "name": "Hungría",
      "name_code": "hu",
      "phone_code": "36"
    },
    {
      "name": "Indonesia",
      "name_code": "id",
      "phone_code": "62"
    },
    {
      "name": "Irlanda",
      "name_code": "ie",
      "phone_code": "353"
    },
    {
      "name": "Israel",
      "name_code": "il",
      "phone_code": "972"
    },
    {
      "name": "Isla de Man",
      "name_code": "im",
      "phone_code": "44"
    },
    {
      "name": "India",
      "name_code": "in",
      "phone_code": "91"
    },
    {
      "name": "Irak",
      "name_code": "iq",
      "phone_code": "964"
    },
    {
      "name": "Irán República Islámica",
      "name_code": "ir",
      "phone_code": "98"
    },
    {
      "name": "Italia",
      "name_code": "it",
      "phone_code": "39"
    },
    {
      "name": "Jamaica",
      "name_code": "jm",
      "phone_code": "1"
    },
    {
      "name": "Jordán",
      "name_code": "jo",
      "phone_code": "962"
    },
    {
      "name": "Japón",
      "name_code": "jp",
      "phone_code": "81"
    },
    {
      "name": "Kenia",
      "name_code": "ke",
      "phone_code": "254"
    },
    {
      "name": "Kirguistán",
      "name_code": "kg",
      "phone_code": "996"
    },
    {
      "name": "Camboya",
      "name_code": "kh",
      "phone_code": "855"
    },
    {
      "name": "Kiribati",
      "name_code": "ki",
      "phone_code": "686"
    },
    {
      "name": "Comoras",
      "name_code": "km",
      "phone_code": "269"
    },
    {
      "name": "San Cristóbal y Nieves",
      "name_code": "kn",
      "phone_code": "1"
    },
    {
      "name": "Corea del norte",
      "name_code": "kp",
      "phone_code": "850"
    },
    {
      "name": "Corea",
      "name_code": "kr",
      "phone_code": "82"
    },
    {
      "name": "Kuwait",
      "name_code": "kw",
      "phone_code": "965"
    },
    {
      "name": "Islas Caimán",
      "name_code": "ky",
      "phone_code": "1"
    },
    {
      "name": "Kazajstán",
      "name_code": "kz",
      "phone_code": "7"
    },
    {
      "name": "Laos",
      "name_code": "la",
      "phone_code": "856"
    },
    {
      "name": "Líbano",
      "name_code": "lb",
      "phone_code": "961"
    },
    {
      "name": "Santa Lucía",
      "name_code": "lc",
      "phone_code": "1"
    },
    {
      "name": "Liechtenstein",
      "name_code": "li",
      "phone_code": "423"
    },
    {
      "name": "Sri Lanka",
      "name_code": "lk",
      "phone_code": "94"
    },
    {
      "name": "Liberia",
      "name_code": "lr",
      "phone_code": "231"
    },
    {
      "name": "Lesoto",
      "name_code": "ls",
      "phone_code": "266"
    },
    {
      "name": "Lituania",
      "name_code": "lt",
      "phone_code": "370"
    },
    {
      "name": "Luxemburgo",
      "name_code": "lu",
      "phone_code": "352"
    },
    {
      "name": "Letonia",
      "name_code": "lv",
      "phone_code": "371"
    },
    {
      "name": "Libia",
      "name_code": "ly",
      "phone_code": "218"
    },
    {
      "name": "Marruecos",
      "name_code": "ma",
      "phone_code": "212"
    },
    {
      "name": "Mónaco",
      "name_code": "mc",
      "phone_code": "377"
    },
    {
      "name": "Moldavia",
      "name_code": "md",
      "phone_code": "373"
    },
    {
      "name": "Montenegro",
      "name_code": "me",
      "phone_code": "382"
    },
    {
      "name": "Madagascar",
      "name_code": "mg",
      "phone_code": "261"
    },
    {
      "name": "Islas Marshall",
      "name_code": "mh",
      "phone_code": "692"
    },
    {
      "name": "Macedonia Ex-República Yugoslava de",
      "name_code": "mk",
      "phone_code": "389"
    },
    {
      "name": "mali",
      "name_code": "ml",
      "phone_code": "223"
    },
    {
      "name": "Myanmar",
      "name_code": "mm",
      "phone_code": "95"
    },
    {
      "name": "Mongolia",
      "name_code": "mn",
      "phone_code": "976"
    },
    {
      "name": "macao",
      "name_code": "mo",
      "phone_code": "853"
    },
    {
      "name": "Martinica",
      "name_code": "mq",
      "phone_code": "596"
    },
    {
      "name": "Mauritania",
      "name_code": "mr",
      "phone_code": "222"
    },
    {
      "name": "Montserrat",
      "name_code": "ms",
      "phone_code": "1"
    },
    {
      "name": "Malta",
      "name_code": "mt",
      "phone_code": "356"
    },
    {
      "name": "Mauricio",
      "name_code": "mu",
      "phone_code": "230"
    },
    {
      "name": "Maldivas",
      "name_code": "mv",
      "phone_code": "960"
    },
    {
      "name": "Malawi",
      "name_code": "mw",
      "phone_code": "265"
    },
    {
      "name": "Méjico",
      "name_code": "mx",
      "phone_code": "52"
    },
    {
      "name": "Malasia",
      "name_code": "my",
      "phone_code": "60"
    },
    {
      "name": "Mozambique",
      "name_code": "mz",
      "phone_code": "258"
    },
    {
      "name": "Namibia",
      "name_code": "na",
      "phone_code": "264"
    },
    {
      "name": "Nueva Caledonia",
      "name_code": "nc",
      "phone_code": "687"
    },
    {
      "name": "Níger",
      "name_code": "ne",
      "phone_code": "227"
    },
    {
      "name": "Nigeria",
      "name_code": "ng",
      "phone_code": "234"
    },
    {
      "name": "Nicaragua",
      "name_code": "ni",
      "phone_code": "505"
    },
    {
      "name": "Países Bajos",
      "name_code": "nl",
      "phone_code": "31"
    },
    {
      "name": "Noruega",
      "name_code": "no",
      "phone_code": "47"
    },
    {
      "name": "Nepal",
      "name_code": "np",
      "phone_code": "977"
    },
    {
      "name": "Nauru",
      "name_code": "nr",
      "phone_code": "674"
    },
    {
      "name": "Niue",
      "name_code": "nu",
      "phone_code": "683"
    },
    {
      "name": "Nueva Zelanda",
      "name_code": "nz",
      "phone_code": "64"
    },
    {
      "name": "Omán",
      "name_code": "om",
      "phone_code": "968"
    },
    {
      "name": "Panamá",
      "name_code": "pa",
      "phone_code": "507"
    },
    {
      "name": "Perú",
      "name_code": "pe",
      "phone_code": "51"
    },
    {
      "name": "Polinesia francés",
      "name_code": "pf",
      "phone_code": "689"
    },
    {
      "name": "Papúa Nueva Guinea",
      "name_code": "pg",
      "phone_code": "675"
    },
    {
      "name": "Filipinas",
      "name_code": "ph",
      "phone_code": "63"
    },
    {
      "name": "Pakistán",
      "name_code": "pk",
      "phone_code": "92"
    },
    {
      "name": "Polonia",
      "name_code": "pl",
      "phone_code": "48"
    },
    {
      "name": "San Pedro y Miquelón",
      "name_code": "pm",
      "phone_code": "508"
    },
    {
      "name": "Pitcairn",
      "name_code": "pn",
      "phone_code": "870"
    },
    {
      "name": "Puerto Rico",
      "name_code": "pr",
      "phone_code": "1"
    },
    {
      "name": "Palestina",
      "name_code": "ps",
      "phone_code": "970"
    },
    {
      "name": "Portugal",
      "name_code": "pt",
      "phone_code": "351"
    },
    {
      "name": "Palau",
      "name_code": "pw",
      "phone_code": "680"
    },
    {
      "name": "Paraguay",
      "name_code": "py",
      "phone_code": "595"
    },
    {
      "name": "Katar",
      "name_code": "qa",
      "phone_code": "974"
    },
    {
      "name": "Rumania",
      "name_code": "ro",
      "phone_code": "40"
    },
    {
      "name": "Serbia",
      "name_code": "rs",
      "phone_code": "381"
    },
    {
      "name": "Federación Rusa",
      "name_code": "ru",
      "phone_code": "7"
    },
    {
      "name": "Ruanda",
      "name_code": "rw",
      "phone_code": "250"
    },
    {
      "name": "Arabia Saudita",
      "name_code": "sa",
      "phone_code": "966"
    },
    {
      "name": "Islas Salomón",
      "name_code": "sb",
      "phone_code": "677"
    },
    {
      "name": "Seychelles",
      "name_code": "sc",
      "phone_code": "248"
    },
    {
      "name": "Sudán",
      "name_code": "sd",
      "phone_code": "249"
    },
    {
      "name": "Suecia",
      "name_code": "se",
      "phone_code": "46"
    },
    {
      "name": "Singapur",
      "name_code": "sg",
      "phone_code": "65"
    },
    {
      "name": "Santa Helena Ascensión y Tristán da Cunha",
      "name_code": "sh",
      "phone_code": "290"
    },
    {
      "name": "Eslovenia",
      "name_code": "si",
      "phone_code": "386"
    },
    {
      "name": "Eslovaquia",
      "name_code": "sk",
      "phone_code": "421"
    },
    {
      "name": "Sierra Leona",
      "name_code": "sl",
      "phone_code": "232"
    },
    {
      "name": "San Marino",
      "name_code": "sm",
      "phone_code": "378"
    },
    {
      "name": "Senegal",
      "name_code": "sn",
      "phone_code": "221"
    },
    {
      "name": "Somalia",
      "name_code": "so",
      "phone_code": "252"
    },
    {
      "name": "Surinam",
      "name_code": "sr",
      "phone_code": "597"
    },
    {
      "name": "Santo Tomé y Príncipe",
      "name_code": "st",
      "phone_code": "239"
    },
    {
      "name": "El Salvador",
      "name_code": "sv",
      "phone_code": "503"
    },
    {
      "name": "Sint Maarten",
      "name_code": "sx",
      "phone_code": "1"
    },
    {
      "name": "República Árabe Siria",
      "name_code": "sy",
      "phone_code": "963"
    },
    {
      "name": "Swazilandia",
      "name_code": "sz",
      "phone_code": "268"
    },
    {
      "name": "Islas Turcas y Caicos",
      "name_code": "tc",
      "phone_code": "1"
    },
    {
      "name": "Chad",
      "name_code": "td",
      "phone_code": "235"
    },
    {
      "name": "Ir",
      "name_code": "tg",
      "phone_code": "228"
    },
    {
      "name": "Tailandia",
      "name_code": "th",
      "phone_code": "66"
    },
    {
      "name": "Tayikistán",
      "name_code": "tj",
      "phone_code": "992"
    },
    {
      "name": "Tokelau",
      "name_code": "tk",
      "phone_code": "690"
    },
    {
      "name": "Timor Oriental",
      "name_code": "tl",
      "phone_code": "670"
    },
    {
      "name": "Turkmenistán",
      "name_code": "tm",
      "phone_code": "993"
    },
    {
      "name": "Túnez",
      "name_code": "tn",
      "phone_code": "216"
    },
    {
      "name": "Tonga",
      "name_code": "to",
      "phone_code": "676"
    },
    {
      "name": "Turquía",
      "name_code": "tr",
      "phone_code": "90"
    },
    {
      "name": "Trinidad y Tobago",
      "name_code": "tt",
      "phone_code": "1"
    },
    {
      "name": "Tuvalu",
      "name_code": "tv",
      "phone_code": "688"
    },
    {
      "name": "Taiwan provincia de China",
      "name_code": "tw",
      "phone_code": "886"
    },
    {
      "name": "Tanzania República Unida",
      "name_code": "tz",
      "phone_code": "255"
    },
    {
      "name": "Ucrania",
      "name_code": "ua",
      "phone_code": "380"
    },
    {
      "name": "Uganda",
      "name_code": "ug",
      "phone_code": "256"
    },
    {
      "name": "Estados Unidos",
      "name_code": "us",
      "phone_code": "1"
    },
    {
      "name": "Uruguay",
      "name_code": "uy",
      "phone_code": "598"
    },
    {
      "name": "Uzbekistán",
      "name_code": "uz",
      "phone_code": "998"
    },
    {
      "name": "Santa Sede (Ciudad del Vaticano)",
      "name_code": "va",
      "phone_code": "39"
    },
    {
      "name": "San Vicente y las Granadinas",
      "name_code": "vc",
      "phone_code": "1"
    },
    {
      "name": "Venezuela República Bolivariana",
      "name_code": "ve",
      "phone_code": "58"
    },
    {
      "name": "Islas Vírgenes Británicas",
      "name_code": "vg",
      "phone_code": "1"
    },
    {
      "name": "Islas Vírgenes de EE.UU",
      "name_code": "vi",
      "phone_code": "1"
    },
    {
      "name": "Vietnam",
      "name_code": "vn",
      "phone_code": "84"
    },
    {
      "name": "Vanuatu",
      "name_code": "vu",
      "phone_code": "678"
    },
    {
      "name": "Wallis y Futuna",
      "name_code": "wf",
      "phone_code": "681"
    },
    {
      "name": "Samoa",
      "name_code": "ws",
      "phone_code": "685"
    },
    {
      "name": "Yemen",
      "name_code": "ye",
      "phone_code": "967"
    },
    {
      "name": "Sudáfrica",
      "name_code": "za",
      "phone_code": "27"
    },
    {
      "name": "Zambia",
      "name_code": "zm",
      "phone_code": "260"
    },
    {
      "name": "Zimbabue",
      "name_code": "zw",
      "phone_code": "263"
    }
]
