[
    {
      "name": "Andorra",
      "name_code": "ad",
      "phone_code": "376"
    },
    {
      "name": "Emirados Árabes Unidos",
      "name_code": "ae",
      "phone_code": "971"
    },
    {
      "name": "Afeganistão",
      "name_code": "af",
      "phone_code": "93"
    },
    {
      "name": "Antígua e Barbuda",
      "name_code": "ag",
      "phone_code": "1"
    },
    {
      "name": "Anguila",
      "name_code": "ai",
      "phone_code": "1"
    },
    {
      "name": "Albânia",
      "name_code": "al",
      "phone_code": "355"
    },
    {
      "name": "Armênia",
      "name_code": "am",
      "phone_code": "374"
    },
    {
      "name": "Angola",
      "name_code": "ao",
      "phone_code": "244"
    },
    {
      "name": "Argentina",
      "name_code": "ar",
      "phone_code": "54"
    },
    {
      "name": "Áustria",
      "name_code": "at",
      "phone_code": "43"
    },
    {
      "name": "Austrália",
      "name_code": "au",
      "phone_code": "61"
    },
    {
      "name": "Aruba",
      "name_code": "aw",
      "phone_code": "297"
    },
    {
      "name": "Azerbaijão",
      "name_code": "az",
      "phone_code": "994"
    },
    {
      "name": "Bósnia e Herzegovina",
      "name_code": "ba",
      "phone_code": "387"
    },
    {
      "name": "Barbados",
      "name_code": "bb",
      "phone_code": "1"
    },
    {
      "name": "Bangladesh",
      "name_code": "bd",
      "phone_code": "880"
    },
    {
      "name": "Bélgica",
      "name_code": "be",
      "phone_code": "32"
    },
    {
      "name": "Burkina Faso",
      "name_code": "bf",
      "phone_code": "226"
    },
    {
      "name": "Bulgária",
      "name_code": "bg",
      "phone_code": "359"
    },
    {
      "name": "Bahrain",
      "name_code": "bh",
      "phone_code": "973"
    },
    {
      "name": "Burundi",
      "name_code": "bi",
      "phone_code": "257"
    },
    {
      "name": "Benin",
      "name_code": "bj",
      "phone_code": "229"
    },
    {
      "name": "São Bartolomeu",
      "name_code": "bl",
      "phone_code": "590"
    },
    {
      "name": "Bermudas",
      "name_code": "bm",
      "phone_code": "1"
    },
    {
      "name": "Brunei Darussalam",
      "name_code": "bn",
      "phone_code": "673"
    },
    {
      "name": "Bolívia, Estado Plurinacional da",
      "name_code": "bo",
      "phone_code": "591"
    },
    {
      "name": "Brasil",
      "name_code": "br",
      "phone_code": "55"
    },
    {
      "name": "Bahamas",
      "name_code": "bs",
      "phone_code": "1"
    },
    {
      "name": "Butão",
      "name_code": "bt",
      "phone_code": "975"
    },
    {
      "name": "Botswana",
      "name_code": "bw",
      "phone_code": "267"
    },
    {
      "name": "Belarus",
      "name_code": "by",
      "phone_code": "375"
    },
    {
      "name": "Belize",
      "name_code": "bz",
      "phone_code": "501"
    },
    {
      "name": "Canadá",
      "name_code": "ca",
      "phone_code": "1"
    },
    {
      "name": "Ilhas Cocos (Keeling)",
      "name_code": "cc",
      "phone_code": "61"
    },
    {
      "name": "Congo, República Democrática do",
      "name_code": "cd",
      "phone_code": "243"
    },
    {
      "name": "Central Africano República",
      "name_code": "cf",
      "phone_code": "236"
    },
    {
      "name": "Suíça",
      "name_code": "ch",
      "phone_code": "41"
    },
    {
      "name": " Costa do Marfim",
      "name_code": "ci",
      "phone_code": "225"
    },
    {
      "name": "Ilhas Cook",
      "name_code": "ck",
      "phone_code": "682"
    },
    {
      "name": "Chile",
      "name_code": "cl",
      "phone_code": "56"
    },
    {
      "name": "Camarões",
      "name_code": "cm",
      "phone_code": "237"
    },
    {
      "name": "China",
      "name_code": "cn",
      "phone_code": "86"
    },
    {
      "name": "Colômbia",
      "name_code": "co",
      "phone_code": "57"
    },
    {
      "name": "Costa Rica",
      "name_code": "cr",
      "phone_code": "506"
    },
    {
      "name": "Cuba",
      "name_code": "cu",
      "phone_code": "53"
    },
    {
      "name": "cabo Verde",
      "name_code": "cv",
      "phone_code": "238"
    },
    {
      "name": "Ilha do Natal",
      "name_code": "cx",
      "phone_code": "61"
    },
    {
      "name": "Chipre",
      "name_code": "cy",
      "phone_code": "357"
    },
    {
      "name": "República Checa",
      "name_code": "cz",
      "phone_code": "420"
    },
    {
      "name": "Alemanha",
      "name_code": "de",
      "phone_code": "49"
    },
    {
      "name": "Djibouti",
      "name_code": "dj",
      "phone_code": "253"
    },
    {
      "name": "Dinamarca",
      "name_code": "dk",
      "phone_code": "45"
    },
    {
      "name": "Dominica",
      "name_code": "dm",
      "phone_code": "1"
    },
    {
      "name": "República Dominicana",
      "name_code": "do",
      "phone_code": "1"
    },
    {
      "name": "Argélia",
      "name_code": "dz",
      "phone_code": "213"
    },
    {
      "name": "Equador",
      "name_code": "ec",
      "phone_code": "593"
    },
    {
      "name": "Estônia",
      "name_code": "ee",
      "phone_code": "372"
    },
    {
      "name": "Egito",
      "name_code": "eg",
      "phone_code": "20"
    },
    {
      "name": "Eritrea",
      "name_code": "er",
      "phone_code": "291"
    },
    {
      "name": "Espanha",
      "name_code": "es",
      "phone_code": "34"
    },
    {
      "name": "Etiópia",
      "name_code": "et",
      "phone_code": "251"
    },
    {
      "name": "Finlândia",
      "name_code": "fi",
      "phone_code": "358"
    },
    {
      "name": "Fiji",
      "name_code": "fj",
      "phone_code": "679"
    },
    {
      "name": "Ilhas Falkland (Malvinas)",
      "name_code": "fk",
      "phone_code": "500"
    },
    {
      "name": "Micronésia, Estados Federados da",
      "name_code": "fm",
      "phone_code": "691"
    },
    {
      "name": "ilhas Faroe",
      "name_code": "fo",
      "phone_code": "298"
    },
    {
      "name": "França",
      "name_code": "fr",
      "phone_code": "33"
    },
    {
      "name": "Gabão",
      "name_code": "ga",
      "phone_code": "241"
    },
    {
      "name": "Reino Unido",
      "name_code": "gb",
      "phone_code": "44"
    },
    {
      "name": "Grenada",
      "name_code": "gd",
      "phone_code": "1"
    },
    {
      "name": "Georgia",
      "name_code": "ge",
      "phone_code": "995"
    },
    {
      "name": "Gana",
      "name_code": "gh",
      "phone_code": "233"
    },
    {
      "name": "Gibraltar",
      "name_code": "gi",
      "phone_code": "350"
    },
    {
      "name": "Groenlândia",
      "name_code": "gl",
      "phone_code": "299"
    },
    {
      "name": "Gâmbia",
      "name_code": "gm",
      "phone_code": "220"
    },
    {
      "name": "Guiné",
      "name_code": "gn",
      "phone_code": "224"
    },
    {
      "name": "Guiné Equatorial",
      "name_code": "gq",
      "phone_code": "240"
    },
    {
      "name": "Grécia",
      "name_code": "gr",
      "phone_code": "30"
    },
    {
      "name": "Guatemala",
      "name_code": "gt",
      "phone_code": "502"
    },
    {
      "name": "Guiné-Bissau",
      "name_code": "gw",
      "phone_code": "245"
    },
    {
      "name": "Guiana",
      "name_code": "gy",
      "phone_code": "592"
    },
    {
      "name": "Hong Kong",
      "name_code": "hk",
      "phone_code": "852"
    },
    {
      "name": "Honduras",
      "name_code": "hn",
      "phone_code": "504"
    },
    {
      "name": "Croácia",
      "name_code": "hr",
      "phone_code": "385"
    },
    {
      "name": "Haiti",
      "name_code": "ht",
      "phone_code": "509"
    },
    {
      "name": "Hungria",
      "name_code": "hu",
      "phone_code": "36"
    },
    {
      "name": "Indonésia",
      "name_code": "id",
      "phone_code": "62"
    },
    {
      "name": "Irlanda",
      "name_code": "ie",
      "phone_code": "353"
    },
    {
      "name": "Israel",
      "name_code": "il",
      "phone_code": "972"
    },
    {
      "name": "Isle Of Man",
      "name_code": "im",
      "phone_code": "44"
    },
    {
      "name": "Índia",
      "name_code": "in",
      "phone_code": "91"
    },
    {
      "name": "Iraque",
      "name_code": "iq",
      "phone_code": "964"
    },
    {
      "name": "Irão, República Islâmica do",
      "name_code": "ir",
      "phone_code": "98"
    },
    {
      "name": "Itália",
      "name_code": "it",
      "phone_code": "39"
    },
    {
      "name": "Jamaica",
      "name_code": "jm",
      "phone_code": "1"
    },
    {
      "name": "Jordânia",
      "name_code": "jo",
      "phone_code": "962"
    },
    {
      "name": "Japão",
      "name_code": "jp",
      "phone_code": "81"
    },
    {
      "name": "Quênia",
      "name_code": "ke",
      "phone_code": "254"
    },
    {
      "name": "Quirguistão",
      "name_code": "kg",
      "phone_code": "996"
    },
    {
      "name": "Camboja",
      "name_code": "kh",
      "phone_code": "855"
    },
    {
      "name": "Kiribati",
      "name_code": "ki",
      "phone_code": "686"
    },
    {
      "name": "Comores",
      "name_code": "km",
      "phone_code": "269"
    },
    {
      "name": "São Cristóvão e Nevis",
      "name_code": "kn",
      "phone_code": "1"
    },
    {
      "name": "Coreia do Norte",
      "name_code": "kp",
      "phone_code": "850"
    },
    {
      "name": "Coréia",
      "name_code": "kr",
      "phone_code": "82"
    },
    {
      "name": "Kuweit",
      "name_code": "kw",
      "phone_code": "965"
    },
    {
      "name": "Ilhas Cayman",
      "name_code": "ky",
      "phone_code": "1"
    },
    {
      "name": "Cazaquistão",
      "name_code": "kz",
      "phone_code": "7"
    },
    {
      "name": "Laos",
      "name_code": "la",
      "phone_code": "856"
    },
    {
      "name": "Líbano",
      "name_code": "lb",
      "phone_code": "961"
    },
    {
      "name": "Santa Lúcia",
      "name_code": "lc",
      "phone_code": "1"
    },
    {
      "name": "Liechtenstein",
      "name_code": "li",
      "phone_code": "423"
    },
    {
      "name": "Sri Lanka",
      "name_code": "lk",
      "phone_code": "94"
    },
    {
      "name": "Libéria",
      "name_code": "lr",
      "phone_code": "231"
    },
    {
      "name": "Lesoto",
      "name_code": "ls",
      "phone_code": "266"
    },
    {
      "name": "Lituânia",
      "name_code": "lt",
      "phone_code": "370"
    },
    {
      "name": "Luxemburgo",
      "name_code": "lu",
      "phone_code": "352"
    },
    {
      "name": "Letônia",
      "name_code": "lv",
      "phone_code": "371"
    },
    {
      "name": "Líbia",
      "name_code": "ly",
      "phone_code": "218"
    },
    {
      "name": "Marrocos",
      "name_code": "ma",
      "phone_code": "212"
    },
    {
      "name": "Monaco",
      "name_code": "mc",
      "phone_code": "377"
    },
    {
      "name": "Moldávia, República da",
      "name_code": "md",
      "phone_code": "373"
    },
    {
      "name": "Montenegro",
      "name_code": "me",
      "phone_code": "382"
    },
    {
      "name": "Madagáscar",
      "name_code": "mg",
      "phone_code": "261"
    },
    {
      "name": "Ilhas Marshall",
      "name_code": "mh",
      "phone_code": "692"
    },
    {
      "name": "Macedónia, Antiga República Jugoslava da",
      "name_code": "mk",
      "phone_code": "389"
    },
    {
      "name": "Mali",
      "name_code": "ml",
      "phone_code": "223"
    },
    {
      "name": "Myanmar",
      "name_code": "mm",
      "phone_code": "95"
    },
    {
      "name": "Mongólia",
      "name_code": "mn",
      "phone_code": "976"
    },
    {
      "name": "Macau",
      "name_code": "mo",
      "phone_code": "853"
    },
    {
      "name": "Martinique",
      "name_code": "mq",
      "phone_code": "596"
    },
    {
      "name": "Mauritânia",
      "name_code": "mr",
      "phone_code": "222"
    },
    {
      "name": "Montserrat",
      "name_code": "ms",
      "phone_code": "1"
    },
    {
      "name": "Malta",
      "name_code": "mt",
      "phone_code": "356"
    },
    {
      "name": "Mauritius",
      "name_code": "mu",
      "phone_code": "230"
    },
    {
      "name": "Maldivas",
      "name_code": "mv",
      "phone_code": "960"
    },
    {
      "name": "Malavi",
      "name_code": "mw",
      "phone_code": "265"
    },
    {
      "name": "México",
      "name_code": "mx",
      "phone_code": "52"
    },
    {
      "name": "Malásia",
      "name_code": "my",
      "phone_code": "60"
    },
    {
      "name": "Moçambique",
      "name_code": "mz",
      "phone_code": "258"
    },
    {
      "name": "Namíbia",
      "name_code": "na",
      "phone_code": "264"
    },
    {
      "name": "Nova Caledônia",
      "name_code": "nc",
      "phone_code": "687"
    },
    {
      "name": "Níger",
      "name_code": "ne",
      "phone_code": "227"
    },
    {
      "name": "Nigéria",
      "name_code": "ng",
      "phone_code": "234"
    },
    {
      "name": "Nicarágua",
      "name_code": "ni",
      "phone_code": "505"
    },
    {
      "name": "países Baixos",
      "name_code": "nl",
      "phone_code": "31"
    },
    {
      "name": "Noruega",
      "name_code": "no",
      "phone_code": "47"
    },
    {
      "name": "Nepal",
      "name_code": "np",
      "phone_code": "977"
    },
    {
      "name": "Nauru",
      "name_code": "nr",
      "phone_code": "674"
    },
    {
      "name": "Niue",
      "name_code": "nu",
      "phone_code": "683"
    },
    {
      "name": "Nova Zelândia",
      "name_code": "nz",
      "phone_code": "64"
    },
    {
      "name": "Omã",
      "name_code": "om",
      "phone_code": "968"
    },
    {
      "name": "Panamá",
      "name_code": "pa",
      "phone_code": "507"
    },
    {
      "name": "Peru",
      "name_code": "pe",
      "phone_code": "51"
    },
    {
      "name": "Polinésia Francesa",
      "name_code": "pf",
      "phone_code": "689"
    },
    {
      "name": "Papua Nova Guiné",
      "name_code": "pg",
      "phone_code": "675"
    },
    {
      "name": "Filipinas",
      "name_code": "ph",
      "phone_code": "63"
    },
    {
      "name": "Paquistão",
      "name_code": "pk",
      "phone_code": "92"
    },
    {
      "name": "Polônia",
      "name_code": "pl",
      "phone_code": "48"
    },
    {
      "name": "Saint Pierre e Miquelon",
      "name_code": "pm",
      "phone_code": "508"
    },
    {
      "name": "Pitcairn",
      "name_code": "pn",
      "phone_code": "870"
    },
    {
      "name": "Porto Rico",
      "name_code": "pr",
      "phone_code": "1"
    },
    {
      "name": "Palestina",
      "name_code": "ps",
      "phone_code": "970"
    },
    {
      "name": "Portugal",
      "name_code": "pt",
      "phone_code": "351"
    },
    {
      "name": "Palau",
      "name_code": "pw",
      "phone_code": "680"
    },
    {
      "name": "Paraguai",
      "name_code": "py",
      "phone_code": "595"
    },
    {
      "name": "Catar",
      "name_code": "qa",
      "phone_code": "974"
    },
    {
      "name": "Romênia",
      "name_code": "ro",
      "phone_code": "40"
    },
    {
      "name": "Sérvia",
      "name_code": "rs",
      "phone_code": "381"
    },
    {
      "name": "Federação Russa",
      "name_code": "ru",
      "phone_code": "7"
    },
    {
      "name": "Ruanda",
      "name_code": "rw",
      "phone_code": "250"
    },
    {
      "name": "Arábia Saudita",
      "name_code": "sa",
      "phone_code": "966"
    },
    {
      "name": "Ilhas Salomão",
      "name_code": "sb",
      "phone_code": "677"
    },
    {
      "name": "Seychelles",
      "name_code": "sc",
      "phone_code": "248"
    },
    {
      "name": "Sudão",
      "name_code": "sd",
      "phone_code": "249"
    },
    {
      "name": "Suécia",
      "name_code": "se",
      "phone_code": "46"
    },
    {
      "name": "Cingapura",
      "name_code": "sg",
      "phone_code": "65"
    },
    {
      "name": "Santa Helena, Ascensão e Tristão da Cunha",
      "name_code": "sh",
      "phone_code": "290"
    },
    {
      "name": "Eslovenia",
      "name_code": "si",
      "phone_code": "386"
    },
    {
      "name": "Eslováquia",
      "name_code": "sk",
      "phone_code": "421"
    },
    {
      "name": "Serra Leoa",
      "name_code": "sl",
      "phone_code": "232"
    },
    {
      "name": "San Marino",
      "name_code": "sm",
      "phone_code": "378"
    },
    {
      "name": "Senegal",
      "name_code": "sn",
      "phone_code": "221"
    },
    {
      "name": "Somália",
      "name_code": "so",
      "phone_code": "252"
    },
    {
      "name": "Suriname",
      "name_code": "sr",
      "phone_code": "597"
    },
    {
      "name": "São Tomé e Príncipe",
      "name_code": "st",
      "phone_code": "239"
    },
    {
      "name": "El Salvador",
      "name_code": "sv",
      "phone_code": "503"
    },
    {
      "name": "Sint Maarten",
      "name_code": "sx",
      "phone_code": "1"
    },
    {
      "name": "República Árabe da Síria",
      "name_code": "sy",
      "phone_code": "963"
    },
    {
      "name": "Suazilândia",
      "name_code": "sz",
      "phone_code": "268"
    },
    {
      "name": "Ilhas Turcas e Caicos",
      "name_code": "tc",
      "phone_code": "1"
    },
    {
      "name": "Chade",
      "name_code": "td",
      "phone_code": "235"
    },
    {
      "name": "Ir",
      "name_code": "tg",
      "phone_code": "228"
    },
    {
      "name": "Tailândia",
      "name_code": "th",
      "phone_code": "66"
    },
    {
      "name": "Tajiquistão",
      "name_code": "tj",
      "phone_code": "992"
    },
    {
      "name": "Tokelau",
      "name_code": "tk",
      "phone_code": "690"
    },
    {
      "name": "Timor-Leste",
      "name_code": "tl",
      "phone_code": "670"
    },
    {
      "name": "Turquemenistão",
      "name_code": "tm",
      "phone_code": "993"
    },
    {
      "name": "Tunísia",
      "name_code": "tn",
      "phone_code": "216"
    },
    {
      "name": "Tonga",
      "name_code": "to",
      "phone_code": "676"
    },
    {
      "name": "Peru",
      "name_code": "tr",
      "phone_code": "90"
    },
    {
      "name": "Trinidad e Tobago",
      "name_code": "tt",
      "phone_code": "1"
    },
    {
      "name": "Tuvalu",
      "name_code": "tv",
      "phone_code": "688"
    },
    {
      "name": "Taiwan, Província da China",
      "name_code": "tw",
      "phone_code": "886"
    },
    {
      "name": "Tanzânia, República Unida da",
      "name_code": "tz",
      "phone_code": "255"
    },
    {
      "name": "Ucrânia",
      "name_code": "ua",
      "phone_code": "380"
    },
    {
      "name": "Uganda",
      "name_code": "ug",
      "phone_code": "256"
    },
    {
      "name": "Estados Unidos",
      "name_code": "us",
      "phone_code": "1"
    },
    {
      "name": "Uruguai",
      "name_code": "uy",
      "phone_code": "598"
    },
    {
      "name": "Uzbequistão",
      "name_code": "uz",
      "phone_code": "998"
    },
    {
      "name": "Santa Sé (Cidade do Vaticano Estado)",
      "name_code": "va",
      "phone_code": "39"
    },
    {
      "name": "São Vicente e Granadinas",
      "name_code": "vc",
      "phone_code": "1"
    },
    {
      "name": "Venezuela, República Bolivariana da",
      "name_code": "ve",
      "phone_code": "58"
    },
    {
      "name": "Ilhas Virgens Britânicas",
      "name_code": "vg",
      "phone_code": "1"
    },
    {
      "name": "Ilhas Virgens Americanas",
      "name_code": "vi",
      "phone_code": "1"
    },
    {
      "name": "Viet Nam",
      "name_code": "vn",
      "phone_code": "84"
    },
    {
      "name": "Vanuatu",
      "name_code": "vu",
      "phone_code": "678"
    },
    {
      "name": "Wallis e Futuna",
      "name_code": "wf",
      "phone_code": "681"
    },
    {
      "name": "Samoa",
      "name_code": "ws",
      "phone_code": "685"
    },
    {
      "name": "Iémen",
      "name_code": "ye",
      "phone_code": "967"
    },
    {
      "name": "África do Sul",
      "name_code": "za",
      "phone_code": "27"
    },
    {
      "name": "Zâmbia",
      "name_code": "zm",
      "phone_code": "260"
    },
    {
      "name": "Zimbábue",
      "name_code": "zw",
      "phone_code": "263"
    }
]
